0 DELTA 1 DEB
1 13574U 78026FM  13282.82591584  .00000342  00000-0  20582-3 0  6414
2 13574 098.5335 289.5523 0040513 032.0251 092.6341 14.12512276651733
0 DELTA 1 DEB
1 13574U 78026FM  13286.51497698  .00000501  00000-0  29118-3 0  6438
2 13574 098.5329 293.0672 0040310 021.5488 131.6169 14.12514962652255
0 DELTA 1 DEB
1 13574U 78026FM  13287.69955885  .00000557  00000-0  32126-3 0  6440
2 13574 098.5327 294.1958 0040235 018.1709 035.2692 14.12517439652427
0 DELTA 1 DEB
1 13574U 78026FM  13288.97568012  .00000479  00000-0  27964-3 0  6452
2 13574 098.5327 295.4114 0040163 014.5311 044.4126 14.12520248652600
0 DELTA 1 DEB
1 13574U 78026FM  13290.61647311  .00000452  00000-0  26475-3 0  6464
2 13574 098.5329 296.9743 0040074 009.8477 107.9539 14.12522181652833
0 DELTA 1 DEB
1 13574U 78026FM  13292.02193277  .00000531  00000-0  30767-3 0  6476
2 13574 098.5330 298.3129 0039976 005.8273 054.8336 14.12522727653032
0 DELTA 1 DEB
1 13574U 78026FM  13293.52145098  .00000656  00000-0  37466-3 0  6482
2 13574 098.5332 299.7413 0039912 001.4595 120.0935 14.12524053653242
0 DELTA 1 DEB
1 13574U 78026FM  13294.71207912  .00000726  00000-0  41201-3 0  6499
2 13574 098.5332 300.8754 0039853 358.0205 054.5789 14.12525429653412
0 DELTA 1 DEB
1 13574U 78026FM  13295.98704435  .00000669  00000-0  38154-3 0  6502
2 13574 098.5331 302.0900 0039775 354.3324 057.9354 14.12527799653598
